[{"OBJECT_NAME":"STARLINK-4180","OBJECT_ID":"2022-086AN","EPOCH":"2026-03-09T13:20:37.458240","MEAN_MOTION":15.08833146,"ECCENTRICITY":0.00012973,"INCLINATION":53.2174,"RA_OF_ASC_NODE":184.7208,"ARG_OF_PERICENTER":99.3712,"MEAN_ANOMALY":260.7427,"EPHEMERIS_TYPE":0,"CLASSIFICATION_TYPE":"U","NORAD_CAT_ID":53278,"ELEMENT_SET_NO":999,"REV_AT_EPOCH":20117,"BSTAR":-5.1756097e-5,"MEAN_MOTION_DOT":-1.111e-5,"MEAN_MOTION_DDOT":0},{"OBJECT_NAME":"STARLING 3","OBJECT_ID":"2023-100D","EPOCH":"2026-03-09T22:41:57.048288","MEAN_MOTION":15.11145977,"ECCENTRICITY":0.00066311,"INCLINATION":99.5096,"RA_OF_ASC_NODE":65.6477,"ARG_OF_PERICENTER":76.1122,"MEAN_ANOMALY":284.0839,"EPHEMERIS_TYPE":0,"CLASSIFICATION_TYPE":"U","NORAD_CAT_ID":57389,"ELEMENT_SET_NO":999,"REV_AT_EPOCH":14507,"BSTAR":0.00051487914,"MEAN_MOTION_DOT":8.551e-5,"MEAN_MOTION_DDOT":0}]
